0 BREEZE-M DEB
1 38896U 12044AD  13281.92388908  .00609671  46231-4  78796-2 0  6565
2 38896 049.7949 181.2826 1108020 246.3583 101.7270 13.47070195 40929
0 BREEZE-M DEB
1 38896U 12044AD  13282.73950330  .00679981  56472-4  87413-2 0  6575
2 38896 049.7945 178.1753 1102030 248.9469 099.0245 13.48456292 41036
0 BREEZE-M DEB
1 38896U 12044AD  13283.10998751  .00685265  57340-4  88053-2 0  6585
2 38896 049.7943 176.7609 1099852 250.1422 097.7793 13.48938626 41083
0 BREEZE-M DEB
1 38896U 12044AD  13283.55439522  .01190474  00000-0  16952-1 0  6602
2 38896 049.7883 175.0541 1089555 251.4871 096.4293 13.49522759 41149
0 BREEZE-M DEB
1 38896U 12044AD  13283.77653400  .00700475  59797-4  89742-2 0  6593
2 38896 049.7942 174.2141 1096734 252.2807 095.5575 13.49664127 41179
0 BREEZE-M DEB
1 38896U 12044AD  13285.47835861  .00556297  39743-4  70772-2 0  6622
2 38896 049.7947 167.6990 1089248 257.7285 089.9753 13.51415878 41405
0 BREEZE-M DEB
1 38896U 12044AD  13286.06979082  .00569255  41429-4  72382-2 0  6634
2 38896 049.7941 165.4317 1086356 259.6289 088.0591 13.52055035 41484
0 BREEZE-M DEB
1 38896U 12044AD  13286.80868469  .00579761  42855-4  73512-2 0  6646
2 38896 049.7943 162.5953 1083063 262.0111 085.6730 13.52816676 41589
0 BREEZE-M DEB
1 38896U 12044AD  13287.10412139  .00555148  39760-4  70348-2 0  6658
2 38896 049.7942 161.4604 1081713 262.9708 084.7182 13.53123051 41625
0 BREEZE-M DEB
1 38896U 12044AD  13287.47334357  .00568788  41502-4  71963-2 0  6669
2 38896 049.7942 160.0411 1080586 264.1489 083.5447 13.53392401 41676
0 BREEZE-M DEB
1 38896U 12044AD  13287.76867010  .00606704  46531-4  76664-2 0  6670
2 38896 049.7940 158.9057 1079434 265.0992 082.6048 13.53660642 41712
0 BREEZE-M DEB
1 38896U 12044AD  13288.72797832  .00557802  40265-4  70093-2 0  6684
2 38896 049.7937 155.2132 1074179 268.2016 079.5770 13.54898297 41846
0 BREEZE-M DEB
1 38896U 12044AD  13289.02296678  .00571356  42021-4  71738-2 0  6690
2 38896 049.7933 154.0761 1072657 269.1619 078.6457 13.55242410 41882
0 BREEZE-M DEB
1 38896U 12044AD  13289.68640275  .00666421  55428-4  83449-2 0  6705
2 38896 049.7929 151.5171 1069109 271.3108 076.5753 13.56053325 41972
0 BREEZE-M DEB
1 38896U 12044AD  13289.83378114  .00621264  48850-4  77734-2 0  6710
2 38896 049.7929 150.9480 1068536 271.7883 076.1150 13.56193156 41991
0 BREEZE-M DEB
1 38896U 12044AD  13290.42311716  .00705947  61734-4  88118-2 0  6762
2 38896 049.7925 148.6712 1065479 273.6824 074.3060 13.56893821 42074
0 BREEZE-M DEB
1 38896U 12044AD  13290.42313630  .00511298  00000-0  66898-2 0  6725
2 38896 049.7944 148.7064 1061460 273.7756 074.2652 13.56974827 42079
0 BREEZE-M DEB
1 38896U 12044AD  13290.71767497  .00693185  59750-4  86346-2 0  6772
2 38896 049.7927 147.5319 1063999 274.6416 073.3939 13.57249799 42119
0 BREEZE-M DEB
1 38896U 12044AD  13291.01215281  .00634086  50862-4  78859-2 0  6786
2 38896 049.7929 146.3931 1062319 275.6021 072.4858 13.57644762 42159
0 BREEZE-M DEB
1 38896U 12044AD  13291.67443354  .00633295  50851-4  78504-2 0  6799
2 38896 049.7930 143.8282 1059011 277.7446 070.4666 13.58418364 42244
0 BREEZE-M DEB
1 38896U 12044AD  13292.77737655  .00678694  57860-4  83724-2 0  6802
2 38896 049.7920 139.5512 1053141 281.3371 067.1178 13.59774365 42391
0 BREEZE-M DEB
1 38896U 12044AD  13293.43859975  .00720079  64664-4  88601-2 0  6811
2 38896 049.7919 136.9826 1049458 283.4840 065.1377 13.60617649 42480
0 BREEZE-M DEB
1 38896U 12044AD  13294.46632542  .00785533  76359-4  96052-2 0  6824
2 38896 049.7918 132.9832 1043511 286.8394 062.0727 13.62012325 42620
0 BREEZE-M DEB
1 38896U 12044AD  13294.75976674  .00832874  85407-4  10160-1 0  6834
2 38896 049.7918 131.8398 1041687 287.7999 061.2027 13.62446302 42662
0 BREEZE-M DEB
1 38896U 12044AD  13295.05311248  .00788532  77078-4  96082-2 0  6843
2 38896 049.7916 130.6961 1040042 288.7686 060.3258 13.62825086 42702
0 BREEZE-M DEB
1 38896U 12044AD  13295.78611839  .00841569  87448-4  10211-1 0  6854
2 38896 049.7916 127.8344 1035548 291.1549 058.1810 13.63872230 42800
